[{"OBJECT_NAME":"GHGSAT-C4","OBJECT_ID":"2022-057Q","EPOCH":"2026-03-09T22:58:28.655904","MEAN_MOTION":15.3293316,"ECCENTRICITY":0.0007552,"INCLINATION":97.6357,"RA_OF_ASC_NODE":210.0193,"ARG_OF_PERICENTER":100.0033,"MEAN_ANOMALY":260.2061,"EPHEMERIS_TYPE":0,"CLASSIFICATION_TYPE":"U","NORAD_CAT_ID":52746,"ELEMENT_SET_NO":999,"REV_AT_EPOCH":21033,"BSTAR":0.00030289005,"MEAN_MOTION_DOT":9.562e-5,"MEAN_MOTION_DDOT":0},{"OBJECT_NAME":"STARLINK-35494","OBJECT_ID":"2025-225T","EPOCH":"2026-03-09T13:23:12.970464","MEAN_MOTION":15.30182411,"ECCENTRICITY":0.0001451,"INCLINATION":53.1577,"RA_OF_ASC_NODE":166.5941,"ARG_OF_PERICENTER":86.354,"MEAN_ANOMALY":273.7626,"EPHEMERIS_TYPE":0,"CLASSIFICATION_TYPE":"U","NORAD_CAT_ID":65927,"ELEMENT_SET_NO":999,"REV_AT_EPOCH":2438,"BSTAR":0.00055837,"MEAN_MOTION_DOT":0.00016205,"MEAN_MOTION_DDOT":0}]
